ONEWEB-0678             
1 56714U 23068E   23356.79605188 -.00000073  00000+0 -22751-3 0  9996
2 56714  87.9010  79.7886 0001934 113.2264 246.9071 13.15549790 29982
ONEWEB-0679             
1 56715U 23068F   23357.25001157 -.01083469  00000+0 -49626+0 0  9992
2 56715  87.0446  52.8414 0014751 179.4021 321.7303 14.24960154 32786
ONEWEB-0680             
1 56716U 23068G   23356.70940547  .00000029  00000+0  37648-4 0  9991
2 56716  87.9245  64.6635 0002442  86.9675 273.1738 13.21821855 31219
ONEWEB-0681             
1 56717U 23068H   23356.73463375 -.00000038  00000+0 -12370-3 0  9990
2 56717  87.9243  64.6472 0000560  85.7006 274.4192 13.21827302 31201
ONEWEB-0682             
1 56718U 23068J   23356.75888578  .00000113  00000+0  26568-3 0  9995
2 56718  87.9006  79.8492 0001817  86.0061 274.1277 13.15543389 30146
ONEWEB-0683             
1 56719U 23068K   23356.76835968  .00000130  00000+0  31035-3 0  9996
2 56719  87.9007  79.8153 0001803  94.2636 265.8700 13.15548186 30111
ONEWEB-0684             
1 56720U 23068L   23356.77547535  .00000172  00000+0  42284-3 0  9993
2 56720  87.9008  79.8887 0002243 115.3436 244.7927 13.15547010 29941
ONEWEB-0686             
1 56721U 23068M   23356.91667824 -.00980689  00000+0 -46520+0 0  9999
2 56721  87.0167  52.9017 0013278 180.6668 191.8213 14.22789635 32728
